[{"OBJECT_NAME":"STARLINK-5199","OBJECT_ID":"2022-141AW","EPOCH":"2026-03-09T22:14:32.743104","MEAN_MOTION":15.08829562,"ECCENTRICITY":0.00011742,"INCLINATION":53.2199,"RA_OF_ASC_NODE":353.0519,"ARG_OF_PERICENTER":104.6511,"MEAN_ANOMALY":255.4612,"EPHEMERIS_TYPE":0,"CLASSIFICATION_TYPE":"U","NORAD_CAT_ID":54201,"ELEMENT_SET_NO":999,"REV_AT_EPOCH":18603,"BSTAR":-0.00021033102,"MEAN_MOTION_DOT":-3.633e-5,"MEAN_MOTION_DDOT":0},{"OBJECT_NAME":"JIELONG-3 R\/B","OBJECT_ID":"2023-190C","EPOCH":"2026-03-09T21:26:26.113920","MEAN_MOTION":15.18151254,"ECCENTRICITY":0.02497151,"INCLINATION":86.5597,"RA_OF_ASC_NODE":295.7177,"ARG_OF_PERICENTER":271.8036,"MEAN_ANOMALY":85.4623,"EPHEMERIS_TYPE":0,"CLASSIFICATION_TYPE":"U","NORAD_CAT_ID":58507,"ELEMENT_SET_NO":999,"REV_AT_EPOCH":12333,"BSTAR":0.00045620602,"MEAN_MOTION_DOT":0.00021606,"MEAN_MOTION_DDOT":0}]
